KNACKSAT-2              
1 67683U 98067XZ  26094.79014270  .00049990  00000+0  75544-3 0  9999
2 67683  51.6331 301.9471 0010721 281.6024  78.3763 15.54148205  8849
